STARLINK-35564          
1 67420U 26005S   26027.91668981 -.01992699  00000+0 -17427-1 0  9995
2 67420  43.0005 113.0914 0001531 280.5131 128.9682 15.71070761  3523
STARLINK-36431          
1 67421U 26005T   26027.91668981 -.01993895  00000+0 -17439-1 0  9998
2 67421  43.0007 113.0864 0001544 279.6097 131.7911 15.71070070  3423
STARLINK-36418          
1 67422U 26005U   26027.91668981 -.01993948  00000+0 -17440-1 0  9990
2 67422  43.0005 113.0817 0001370 279.1552 134.1612 15.71070772  3589
STARLINK-36465          
1 67423U 26005V   26027.91668981 -.01994441  00000+0 -17445-1 0  9995
2 67423  43.0007 113.0770 0001503 281.7229 133.5115 15.71070371  3371
STARLINK-36362          
1 67424U 26005W   26027.91668981 -.01995870  00000+0 -17458-1 0  9997
2 67424  43.0007 113.0723 0001492 281.6616 135.4897 15.71071437  3637
STARLINK-36447          
1 67425U 26005X   26027.91668981 -.01994772  00000+0 -17447-1 0  9996
2 67425  43.0007 113.0673 0001488 281.2013 137.8665 15.71071190  3639
STARLINK-36146          
1 67426U 26005Y   26027.91668981 -.01995602  00000+0 -17453-1 0  9997
2 67426  43.0005 113.0621 0001605 282.1989 138.7833 15.71072759  3587
STARLINK-36459          
1 67427U 26005Z   26027.91668981 -.01993528  00000+0 -17437-1 0  9995
2 67427  43.0004 113.0569 0001437 281.5465 141.3576 15.71069130  3553
STARLINK-36464          
1 67428U 26005AA  26027.91668981 -.01997725  00000+0 -17476-1 0  9992
2 67428  43.0005 113.0472 0001539 281.7463 144.9907 15.71072096  3632
STARLINK-36513          
1 67429U 26005AB  26027.91668981 -.01997942  00000+0 -17479-1 0  9997
2 67429  43.0003 113.0425 0001449 279.7654 148.8899 15.71071895  3637
STARLINK-36515          
1 67430U 26005AC  26027.91668981 -.01995298  00000+0 -17451-1 0  9991
2 67430  43.0002 113.0523 0001541 281.7719 143.0446 15.71072687  3551
STARLINK-36443          
1 67431U 26005AD  26027.91668981 -.01988560  00000+0 -17389-1 0  9996
2 67431  43.0004 113.0373 0001501 284.0490 146.5227 15.71066574  3581
