CCSDS_OMM_VERS = 2.0
CREATION_DATE  = 
ORIGINATOR     = 

OBJECT_NAME    = STARLINK-35564
OBJECT_ID      = 2026-005S
CENTER_NAME    = EARTH
REF_FRAME      = TEME
TIME_SYSTEM    = UTC
MEAN_ELEMENT_THEORY = SGP/SGP4

EPOCH          = 2026-01-27T22:00:01.999584
MEAN_MOTION    = 15.71070761
ECCENTRICITY   = .00015316
INCLINATION    = 43.0005
RA_OF_ASC_NODE = 113.0914
ARG_OF_PERICENTER = 280.5131
MEAN_ANOMALY   = 128.9682

EPHEMERIS_TYPE = 0
CLASSIFICATION_TYPE = U
NORAD_CAT_ID   = 67420
ELEMENT_SET_NO = 999
REV_AT_EPOCH   = 352
BSTAR          = -.17426766E-1
MEAN_MOTION_DOT = -.1992699E-1
MEAN_MOTION_DDOT = 0

CCSDS_OMM_VERS = 2.0
CREATION_DATE  = 
ORIGINATOR     = 

OBJECT_NAME    = STARLINK-36431
OBJECT_ID      = 2026-005T
CENTER_NAME    = EARTH
REF_FRAME      = TEME
TIME_SYSTEM    = UTC
MEAN_ELEMENT_THEORY = SGP/SGP4

EPOCH          = 2026-01-27T22:00:01.999584
MEAN_MOTION    = 15.71070070
ECCENTRICITY   = .00015444
INCLINATION    = 43.0007
RA_OF_ASC_NODE = 113.0864
ARG_OF_PERICENTER = 279.6097
MEAN_ANOMALY   = 131.7911

EPHEMERIS_TYPE = 0
CLASSIFICATION_TYPE = U
NORAD_CAT_ID   = 67421
ELEMENT_SET_NO = 999
REV_AT_EPOCH   = 342
BSTAR          = -.1743904E-1
MEAN_MOTION_DOT = -.1993895E-1
MEAN_MOTION_DDOT = 0

CCSDS_OMM_VERS = 2.0
CREATION_DATE  = 
ORIGINATOR     = 

OBJECT_NAME    = STARLINK-36418
OBJECT_ID      = 2026-005U
CENTER_NAME    = EARTH
REF_FRAME      = TEME
TIME_SYSTEM    = UTC
MEAN_ELEMENT_THEORY = SGP/SGP4

EPOCH          = 2026-01-27T22:00:01.999584
MEAN_MOTION    = 15.71070772
ECCENTRICITY   = .00013709
INCLINATION    = 43.0005
RA_OF_ASC_NODE = 113.0817
ARG_OF_PERICENTER = 279.1552
MEAN_ANOMALY   = 134.1612

EPHEMERIS_TYPE = 0
CLASSIFICATION_TYPE = U
NORAD_CAT_ID   = 67422
ELEMENT_SET_NO = 999
REV_AT_EPOCH   = 358
BSTAR          = -.17440453E-1
MEAN_MOTION_DOT = -.1993948E-1
MEAN_MOTION_DDOT = 0

CCSDS_OMM_VERS = 2.0
CREATION_DATE  = 
ORIGINATOR     = 

OBJECT_NAME    = STARLINK-36465
OBJECT_ID      = 2026-005V
CENTER_NAME    = EARTH
REF_FRAME      = TEME
TIME_SYSTEM    = UTC
MEAN_ELEMENT_THEORY = SGP/SGP4

EPOCH          = 2026-01-27T22:00:01.999584
MEAN_MOTION    = 15.71070371
ECCENTRICITY   = .00015034
INCLINATION    = 43.0007
RA_OF_ASC_NODE = 113.0770
ARG_OF_PERICENTER = 281.7229
MEAN_ANOMALY   = 133.5115

EPHEMERIS_TYPE = 0
CLASSIFICATION_TYPE = U
NORAD_CAT_ID   = 67423
ELEMENT_SET_NO = 999
REV_AT_EPOCH   = 337
BSTAR          = -.17444574E-1
MEAN_MOTION_DOT = -.1994441E-1
MEAN_MOTION_DDOT = 0

CCSDS_OMM_VERS = 2.0
CREATION_DATE  = 
ORIGINATOR     = 

OBJECT_NAME    = STARLINK-36362
OBJECT_ID      = 2026-005W
CENTER_NAME    = EARTH
REF_FRAME      = TEME
TIME_SYSTEM    = UTC
MEAN_ELEMENT_THEORY = SGP/SGP4

EPOCH          = 2026-01-27T22:00:01.999584
MEAN_MOTION    = 15.71071437
ECCENTRICITY   = .00014925
INCLINATION    = 43.0007
RA_OF_ASC_NODE = 113.0723
ARG_OF_PERICENTER = 281.6616
MEAN_ANOMALY   = 135.4897

EPHEMERIS_TYPE = 0
CLASSIFICATION_TYPE = U
NORAD_CAT_ID   = 67424
ELEMENT_SET_NO = 999
REV_AT_EPOCH   = 363
BSTAR          = -.1745806E-1
MEAN_MOTION_DOT = -.199587E-1
MEAN_MOTION_DDOT = 0

CCSDS_OMM_VERS = 2.0
CREATION_DATE  = 
ORIGINATOR     = 

OBJECT_NAME    = STARLINK-36447
OBJECT_ID      = 2026-005X
CENTER_NAME    = EARTH
REF_FRAME      = TEME
TIME_SYSTEM    = UTC
MEAN_ELEMENT_THEORY = SGP/SGP4

EPOCH          = 2026-01-27T22:00:01.999584
MEAN_MOTION    = 15.71071190
ECCENTRICITY   = .0001488
INCLINATION    = 43.0007
RA_OF_ASC_NODE = 113.0673
ARG_OF_PERICENTER = 281.2013
MEAN_ANOMALY   = 137.8665

EPHEMERIS_TYPE = 0
CLASSIFICATION_TYPE = U
NORAD_CAT_ID   = 67425
ELEMENT_SET_NO = 999
REV_AT_EPOCH   = 363
BSTAR          = -.17447376E-1
MEAN_MOTION_DOT = -.1994772E-1
MEAN_MOTION_DDOT = 0

CCSDS_OMM_VERS = 2.0
CREATION_DATE  = 
ORIGINATOR     = 

OBJECT_NAME    = STARLINK-36146
OBJECT_ID      = 2026-005Y
CENTER_NAME    = EARTH
REF_FRAME      = TEME
TIME_SYSTEM    = UTC
MEAN_ELEMENT_THEORY = SGP/SGP4

EPOCH          = 2026-01-27T22:00:01.999584
MEAN_MOTION    = 15.71072759
ECCENTRICITY   = .00016054
INCLINATION    = 43.0005
RA_OF_ASC_NODE = 113.0621
ARG_OF_PERICENTER = 282.1989
MEAN_ANOMALY   = 138.7833

EPHEMERIS_TYPE = 0
CLASSIFICATION_TYPE = U
NORAD_CAT_ID   = 67426
ELEMENT_SET_NO = 999
REV_AT_EPOCH   = 358
BSTAR          = -.17453478E-1
MEAN_MOTION_DOT = -.1995602E-1
MEAN_MOTION_DDOT = 0

CCSDS_OMM_VERS = 2.0
CREATION_DATE  = 
ORIGINATOR     = 

OBJECT_NAME    = STARLINK-36459
OBJECT_ID      = 2026-005Z
CENTER_NAME    = EARTH
REF_FRAME      = TEME
TIME_SYSTEM    = UTC
MEAN_ELEMENT_THEORY = SGP/SGP4

EPOCH          = 2026-01-27T22:00:01.999584
MEAN_MOTION    = 15.71069130
ECCENTRICITY   = .00014377
INCLINATION    = 43.0004
RA_OF_ASC_NODE = 113.0569
ARG_OF_PERICENTER = 281.5465
MEAN_ANOMALY   = 141.3576

EPHEMERIS_TYPE = 0
CLASSIFICATION_TYPE = U
NORAD_CAT_ID   = 67427
ELEMENT_SET_NO = 999
REV_AT_EPOCH   = 355
BSTAR          = -.1743697E-1
MEAN_MOTION_DOT = -.1993528E-1
MEAN_MOTION_DDOT = 0

CCSDS_OMM_VERS = 2.0
CREATION_DATE  = 
ORIGINATOR     = 

OBJECT_NAME    = STARLINK-36464
OBJECT_ID      = 2026-005AA
CENTER_NAME    = EARTH
REF_FRAME      = TEME
TIME_SYSTEM    = UTC
MEAN_ELEMENT_THEORY = SGP/SGP4

EPOCH          = 2026-01-27T22:00:01.999584
MEAN_MOTION    = 15.71072096
ECCENTRICITY   = .00015393
INCLINATION    = 43.0005
RA_OF_ASC_NODE = 113.0472
ARG_OF_PERICENTER = 281.7463
MEAN_ANOMALY   = 144.9907

EPHEMERIS_TYPE = 0
CLASSIFICATION_TYPE = U
NORAD_CAT_ID   = 67428
ELEMENT_SET_NO = 999
REV_AT_EPOCH   = 363
BSTAR          = -.174756E-1
MEAN_MOTION_DOT = -.1997725E-1
MEAN_MOTION_DDOT = 0

CCSDS_OMM_VERS = 2.0
CREATION_DATE  = 
ORIGINATOR     = 

OBJECT_NAME    = STARLINK-36513
OBJECT_ID      = 2026-005AB
CENTER_NAME    = EARTH
REF_FRAME      = TEME
TIME_SYSTEM    = UTC
MEAN_ELEMENT_THEORY = SGP/SGP4

EPOCH          = 2026-01-27T22:00:01.999584
MEAN_MOTION    = 15.71071895
ECCENTRICITY   = .00014491
INCLINATION    = 43.0003
RA_OF_ASC_NODE = 113.0425
ARG_OF_PERICENTER = 279.7654
MEAN_ANOMALY   = 148.8899

EPHEMERIS_TYPE = 0
CLASSIFICATION_TYPE = U
NORAD_CAT_ID   = 67429
ELEMENT_SET_NO = 999
REV_AT_EPOCH   = 363
BSTAR          = -.17478638E-1
MEAN_MOTION_DOT = -.1997942E-1
MEAN_MOTION_DDOT = 0

CCSDS_OMM_VERS = 2.0
CREATION_DATE  = 
ORIGINATOR     = 

OBJECT_NAME    = STARLINK-36515
OBJECT_ID      = 2026-005AC
CENTER_NAME    = EARTH
REF_FRAME      = TEME
TIME_SYSTEM    = UTC
MEAN_ELEMENT_THEORY = SGP/SGP4

EPOCH          = 2026-01-27T22:00:01.999584
MEAN_MOTION    = 15.71072687
ECCENTRICITY   = .00015416
INCLINATION    = 43.0002
RA_OF_ASC_NODE = 113.0523
ARG_OF_PERICENTER = 281.7719
MEAN_ANOMALY   = 143.0446

EPHEMERIS_TYPE = 0
CLASSIFICATION_TYPE = U
NORAD_CAT_ID   = 67430
ELEMENT_SET_NO = 999
REV_AT_EPOCH   = 355
BSTAR          = -.1745104E-1
MEAN_MOTION_DOT = -.1995298E-1
MEAN_MOTION_DDOT = 0

CCSDS_OMM_VERS = 2.0
CREATION_DATE  = 
ORIGINATOR     = 

OBJECT_NAME    = STARLINK-36443
OBJECT_ID      = 2026-005AD
CENTER_NAME    = EARTH
REF_FRAME      = TEME
TIME_SYSTEM    = UTC
MEAN_ELEMENT_THEORY = SGP/SGP4

EPOCH          = 2026-01-27T22:00:01.999584
MEAN_MOTION    = 15.71066574
ECCENTRICITY   = .00015017
INCLINATION    = 43.0004
RA_OF_ASC_NODE = 113.0373
ARG_OF_PERICENTER = 284.0490
MEAN_ANOMALY   = 146.5227

EPHEMERIS_TYPE = 0
CLASSIFICATION_TYPE = U
NORAD_CAT_ID   = 67431
ELEMENT_SET_NO = 999
REV_AT_EPOCH   = 358
BSTAR          = -.17389046E-1
MEAN_MOTION_DOT = -.198856E-1
MEAN_MOTION_DDOT = 0

